{"fetched_at":"2026-07-16T17:47:00.462Z","source":"https://celestrak.org/NORAD/elements/gp.php?NAME=SPOT&FORMAT=JSON","constellation":"spot","records":[{"OBJECT_NAME":"SPOT 6","OBJECT_ID":"2012-047A","EPOCH":"2026-07-16T06:50:41.407008","CLASSIFICATION_TYPE":"U","MEAN_MOTION":14.58538762,"ECCENTRICITY":0.00011182,"INCLINATION":98.2111,"RA_OF_ASC_NODE":264.2514,"ARG_OF_PERICENTER":87.1688,"MEAN_ANOMALY":272.9639,"EPHEMERIS_TYPE":0,"NORAD_CAT_ID":38755,"ELEMENT_SET_NO":999,"REV_AT_EPOCH":73729,"BSTAR":0.000005260969,"MEAN_MOTION_DOT":-2.1e-7,"MEAN_MOTION_DDOT":0},{"OBJECT_NAME":"SPOT 7","OBJECT_ID":"2014-034A","EPOCH":"2026-07-16T06:56:24.304416","CLASSIFICATION_TYPE":"U","MEAN_MOTION":14.60981708,"ECCENTRICITY":0.00016043,"INCLINATION":98.0618,"RA_OF_ASC_NODE":259.029,"ARG_OF_PERICENTER":94.5578,"MEAN_ANOMALY":265.5807,"EPHEMERIS_TYPE":0,"NORAD_CAT_ID":40053,"ELEMENT_SET_NO":999,"REV_AT_EPOCH":64138,"BSTAR":0.000058832976,"MEAN_MOTION_DOT":0.00000243,"MEAN_MOTION_DDOT":0}]}
