SPOT 6                  
1 38755U 12047A   26197.28520147 -.00000021  00000+0  52610-5 0  9998
2 38755  98.2111 264.2514 0001118  87.1688 272.9639 14.58538762737290
SPOT 7                  
1 40053U 14034A   26197.28917019  .00000243  00000+0  58833-4 0  9995
2 40053  98.0618 259.0290 0001604  94.5578 265.5807 14.60981708641381
